TIANWANG 1C (TW-1C)     
1 40926U 15051B   17254.82425115  .00010984  00000-0  24212-3 0  9996
2 40926  97.2218 293.7438 0010430 205.4677 241.5407 15.44033754110288
TIANWANG 1B (TW-1B)     
1 40927U 15051C   17254.89892595  .00011160  00000-0  25548-3 0  9994
2 40927  97.2301 293.7953 0009876 217.0479 267.5302 15.42908085110238
TIANWANG 1A (TW-1A)     
1 40928U 15051D   17254.37985105  .00006465  00000-0  18209-3 0  9996
2 40928  97.2197 288.6432 0010713 242.8874 172.7446 15.36733044109939
LAPAN-A2 (IO-86)        
1 40931U 15052B   17254.56904486  .00000613  00000-0 -36877-5 0  9998
2 40931   6.0013 336.7525 0013005  22.9965 337.0771 14.76541077105750
LQSAT                   
1 40958U 15057A   17254.72397548  .00000268  00000-0  49351-4 0  9990
2 40958  97.9707 328.5061 0019255 145.7946 214.4488 14.72985373103857
CHUBUSAT-2              
1 41338U 16012B   17254.47448536  .00000824  00000-0  58138-4 0  9992
2 41338  31.0033 284.2269 0013911 193.7687 166.2570 14.99798014 85956
CHUBUSAT-3              
1 41339U 16012C   17254.45753254  .00000317  00000-0  17988-4 0  9992
2 41339  31.0109 283.3399 0013609 201.0885 158.9192 14.99998677 85935
OUFTI-1                 
1 41458U 16025C   17254.64068293  .00005519  00000-0  29585-3 0  9995
2 41458  98.1780 297.1584 0172005   1.3861 358.7781 15.03563912 75575
E-ST@R-II               
1 41459U 16025D   17254.60473132  .00004487  00000-0  24144-3 0  9993
2 41459  98.1760 297.0475 0173593   1.5681 358.6035 15.03367792 75554
AAUSAT 4                
1 41460U 16025E   17254.88092243  .00003694  00000-0  19917-3 0  9996
2 41460  98.1686 297.4988 0166118 358.6294   1.4423 15.04385388 75621
NUSAT 1 (LO-87)         
1 41557U 16033B   17254.76601792  .00002895  00000-0  11057-3 0  9993
2 41557  97.4581 334.2757 0015622  65.3451 294.9413 15.27352475 71640
BEESAT-4                
1 41619U 16040W   17254.70974095  .00003124  00000-0  14344-3 0  9991
2 41619  97.4539 316.2382 0013465 122.3959 237.8581 15.21073791 55746
PRATHAM                 
1 41783U 16059A   17254.41394101  .00000142  00000-0  37041-4 0  9992
2 41783  98.1589 314.8590 0032404 249.6301 110.1419 14.62857340 51208
ALSAT 1N                
1 41789U 16059G   17254.74113874  .00000289  00000-0  64061-4 0  9994
2 41789  98.1584 315.8514 0027091 241.5230 118.3247 14.64074576 51274
NAYIF-1 (EO-88)         
1 42017U 17008BX  17254.56321787  .00003534  00000-0  15192-3 0  9994
2 42017  97.4868 315.8295 0004923 280.3335  79.7346 15.23317114 31630
LILACSAT-1              
1 42725U 98067ME  17254.47219017  .00025187  00000-0  34322-3 0  9990
2 42725  51.6398 326.8785 0006123 281.7628  78.2677 15.57346940 16917
MAX VALIER SAT          
1 42778U 17036P   17254.56369006  .00002408  00000-0  11303-3 0  9994
2 42778  97.4433 313.3586 0011838 331.7223  28.3369 15.20548046 12156
